[{"OBJECT_NAME":"EZIE-A","OBJECT_ID":"2025-052AP","EPOCH":"2026-03-09T23:28:40.313568","MEAN_MOTION":14.96303626,"ECCENTRICITY":0.00037417,"INCLINATION":97.7004,"RA_OF_ASC_NODE":322.7329,"ARG_OF_PERICENTER":145.0909,"MEAN_ANOMALY":215.0559,"EPHEMERIS_TYPE":0,"CLASSIFICATION_TYPE":"U","NORAD_CAT_ID":63247,"ELEMENT_SET_NO":999,"REV_AT_EPOCH":5382,"BSTAR":0.00071342701,"MEAN_MOTION_DOT":8.013e-5,"MEAN_MOTION_DDOT":0},{"OBJECT_NAME":"STARLINK-34117","OBJECT_ID":"2025-102U","EPOCH":"2026-03-09T12:28:57.378720","MEAN_MOTION":14.98306685,"ECCENTRICITY":0.0003098,"INCLINATION":70.0009,"RA_OF_ASC_NODE":115.004,"ARG_OF_PERICENTER":269.949,"MEAN_ANOMALY":90.1314,"EPHEMERIS_TYPE":0,"CLASSIFICATION_TYPE":"U","NORAD_CAT_ID":64040,"ELEMENT_SET_NO":999,"REV_AT_EPOCH":4586,"BSTAR":0.00077784,"MEAN_MOTION_DOT":9.195e-5,"MEAN_MOTION_DDOT":0}]
